     3.03           N: GNSS NAV DATA    E: GALILEO          RINEX VERSION / TYPE
TPP                 Reference Data Shop 20200916 133252 UTC PGM / RUN BY / DATE 
                                                            COMMENT             
                                                            COMMENT             
                                                            COMMENT             
GAL     .7451E-08   .1490E-07  -.5960E-07   .0000E+00       IONOSPHERIC CORR    
GAUT   .0000000000E+00  .000000000E+00      0    0          TIME SYSTEM CORR    
    18  2123     4                                          LEAP SECONDS        
                                                            END OF HEADER       
E07 2020 09 16 10 30 00 -.436725735199E-03 -.494537744089E-11  .000000000000E+00
      .111000000000E+03 -.919062500000E+02  .264761028360E-08  .110857369014E+01
     -.422447919846E-05  .269830576144E-03  .167526304722E-04  .544064525414E+04
      .297000000000E+06 -.111758708954E-06  .291391745919E+01  .633299350739E-07
      .954682107645E+00 -.237812500000E+02 -.311271326386E+00 -.531093550750E-08
     -.478591363823E-10  .257000000000E+03  .212300000000E+04  .000000000000E+00
      .312000000000E+01  .000000000000E+00  .302679836750E-08  .325962901115E-08
      .297715000000E+06  .000000000000E+00  .000000000000E+00  .000000000000E+00
E31 2020 09 16 10 40 00 -.474163098261E-03 -.241584530158E-12  .000000000000E+00
      .112000000000E+03 -.681875000000E+02  .340299889142E-08 -.179972132429E+01
     -.307522714138E-05  .456220819615E-03  .420026481152E-05  .544060234070E+04
      .297600000000E+06  .316649675369E-07 -.127502119423E+01  .130385160446E-07
      .980341193363E+00  .259812500000E+03 -.178179667914E+01 -.585488673668E-08
     -.421088968617E-09  .257000000000E+03  .212300000000E+04  .000000000000E+00
      .312000000000E+01  .000000000000E+00  .256113708019E-08  .279396772385E-08
      .298285000000E+06  .000000000000E+00  .000000000000E+00  .000000000000E+00
E14 2020 09 16 10 40 00 -.115771451965E-02 -.133724142870E-10  .000000000000E+00
      .112000000000E+03 -.383125000000E+02  .415517307964E-08  .117875742199E+01
     -.657513737679E-06  .165617289720E+00  .125523656607E-04  .528934434509E+04
      .297600000000E+06  .187754631042E-05  .769364549064E-01  .867992639542E-06
      .883260238009E+00  .421250000000E+02  .180246697283E+01 -.435625288399E-08
     -.933967474923E-09  .257000000000E+03  .212300000000E+04  .000000000000E+00
      .312000000000E+01  .390000000000E+03 -.512227416039E-08 -.605359673500E-08
      .298795000000E+06  .000000000000E+00  .000000000000E+00  .000000000000E+00
E08 2020 09 16 10 40 00  .611988973105E-02 -.544275735592E-11  .000000000000E+00
      .112000000000E+03 -.820312500000E+02  .273261382433E-08  .156319983062E+01
     -.388361513615E-05  .304148299620E-03  .156685709953E-04  .544063717651E+04
      .297600000000E+06  .167638063431E-07  .290797224058E+01 -.108033418655E-06
      .960613871801E+00  .934375000000E+01  .916904869797E-01 -.530343519508E-08
     -.162149611325E-09  .257000000000E+03  .212300000000E+04  .000000000000E+00
      .312000000000E+01  .000000000000E+00 -.582076609135E-08 -.675208866596E-08
      .298495000000E+06  .000000000000E+00  .000000000000E+00  .000000000000E+00
E13 2020 09 16 10 20 00  .403705635108E-03  .241584530158E-12  .000000000000E+00
      .110000000000E+03  .184625000000E+03  .295440877727E-08 -.573135897914E+00
      .852160155773E-05  .106934108771E-03  .433810055256E-05  .544060051346E+04
      .296400000000E+06  .372529029846E-07  .805724274884E+00 -.279396772385E-07
      .992403592222E+00  .262250000000E+03 -.286727048905E+01 -.576416867219E-08
      .558237538548E-09  .257000000000E+03  .212300000000E+04  .000000000000E+00
      .312000000000E+01  .000000000000E+00 -.162981450558E-08 -.209547579288E-08
      .297085000000E+06  .000000000000E+00  .000000000000E+00  .000000000000E+00
E24 2020 09 16 10 30 00  .524126732489E-02 -.199804617296E-10  .000000000000E+00
      .111000000000E+03 -.696562500000E+02  .341335646571E-08  .166590115632E+01
     -.326894223690E-05  .286307418719E-03  .369548797607E-05  .544059272766E+04
      .297000000000E+06  .353902578354E-07 -.126981533003E+01 -.372529029846E-08
      .978330608494E+00  .265968750000E+03  .193018188188E+00 -.588631661729E-08
     -.418946022212E-09  .257000000000E+03  .212300000000E+04  .000000000000E+00
      .312000000000E+01  .000000000000E+00  .454019755125E-07  .507570803165E-07
      .297835000000E+06  .000000000000E+00  .000000000000E+00  .000000000000E+00
E26 2020 09 16 10 50 00  .272016267991E-02 -.436983782492E-10  .000000000000E+00
      .113000000000E+03  .189593750000E+03  .313870216812E-08 -.871226591342E+00
      .884011387825E-05  .254383659922E-03  .446476042271E-05  .544060922813E+04
      .298200000000E+06  .745058059692E-08  .811774184305E+00 -.279396772385E-07
      .985600031295E+00  .256250000000E+03  .312893378938E+01 -.586095841816E-08
      .625026034843E-09  .257000000000E+03  .212300000000E+04  .000000000000E+00
      .312000000000E+01  .000000000000E+00  .372529029846E-08  .419095158577E-08
      .298864000000E+06  .000000000000E+00  .000000000000E+00  .000000000000E+00
E08 2020 09 16 10 50 00  .611988647142E-02 -.544275735592E-11  .000000000000E+00
      .113000000000E+03 -.828437500000E+02  .274082845222E-08  .163729488315E+01
     -.394694507122E-05  .304091488943E-03  .156834721565E-04  .544063738632E+04
      .298200000000E+06  .335276126862E-07  .290796917284E+01 -.968575477600E-07
      .960613776711E+00  .912500000000E+01  .919795669067E-01 -.531307845390E-08
     -.171078554680E-09  .257000000000E+03  .212300000000E+04  .000000000000E+00
      .312000000000E+01  .000000000000E+00 -.582076609135E-08 -.675208866596E-08
      .298885000000E+06  .000000000000E+00  .000000000000E+00  .000000000000E+00
E14 2020 09 16 10 50 00 -.115772249410E-02 -.133724142870E-10  .000000000000E+00
      .113000000000E+03 -.291562500000E+02  .456947605130E-08  .125970159949E+01
     -.121071934700E-06  .165616355487E+00  .120326876640E-04  .528934727478E+04
      .298200000000E+06  .199116766453E-05  .769327873708E-01  .122934579849E-06
      .883256763578E+00  .456250000000E+02  .180247751315E+01 -.496592113626E-08
     -.725030200418E-09  .257000000000E+03  .212300000000E+04  .000000000000E+00
      .312000000000E+01  .390000000000E+03 -.512227416039E-08 -.605359673500E-08
      .298894000000E+06  .000000000000E+00  .000000000000E+00  .000000000000E+00
E26 2020 09 16 11 00 00  .272013637004E-02 -.436983782492E-10  .000000000000E+00
      .114000000000E+03  .188968750000E+03  .312977322476E-08 -.796687364701E+00
      .881776213646E-05  .254545360804E-03  .442191958427E-05  .544060955620E+04
      .298800000000E+06  .111758708954E-07  .811770644043E+00 -.316649675369E-07
      .985600423357E+00  .257437500000E+03  .312878025320E+01 -.585702968308E-08
      .625740350312E-09  .257000000000E+03  .212300000000E+04  .000000000000E+00
      .312000000000E+01  .000000000000E+00  .372529029846E-08  .419095158577E-08
      .299464000000E+06  .000000000000E+00  .000000000000E+00  .000000000000E+00
E08 2020 09 16 11 00 00  .611988321180E-02 -.542854650121E-11  .000000000000E+00
      .114000000000E+03 -.844375000000E+02  .274654297597E-08  .171115609846E+01
     -.404566526413E-05  .303964363411E-03  .156853348017E-04  .544063779259E+04
      .298800000000E+06  .465661287308E-07  .290796609047E+01 -.838190317154E-07
      .960613672844E+00  .909375000000E+01  .925025586572E-01 -.532307887046E-08
     -.178936024832E-09  .257000000000E+03  .212300000000E+04  .000000000000E+00
      .312000000000E+01  .000000000000E+00 -.582076609135E-08 -.675208866596E-08
      .299485000000E+06  .000000000000E+00  .000000000000E+00  .000000000000E+00
E14 2020 09 16 11 00 00 -.115773041034E-02 -.133582034323E-10  .000000000000E+00
      .114000000000E+03 -.142500000000E+02  .481234331056E-08  .134064398492E+01
      .683590769768E-06  .165615113336E+00  .117495656013E-04  .528935111809E+04
      .298800000000E+06  .229477882385E-05  .769288565099E-01 -.318512320518E-06
      .883254241507E+00  .456562500000E+02  .180249005183E+01 -.536022327481E-08
     -.529664919813E-09  .257000000000E+03  .212300000000E+04  .000000000000E+00
      .312000000000E+01  .390000000000E+03 -.512227416039E-08 -.605359673500E-08
      .299494000000E+06  .000000000000E+00  .000000000000E+00  .000000000000E+00
E26 2020 09 16 11 10 00  .272011006018E-02 -.436983782492E-10  .000000000000E+00
      .115000000000E+03  .188593750000E+03  .312084428141E-08 -.722217414546E+00
      .880472362041E-05  .254684244283E-03  .438466668129E-05  .544060983276E+04
      .299400000000E+06  .167638063431E-07  .811767102318E+00 -.353902578354E-07
      .985600819807E+00  .258500000000E+03  .312869595840E+01 -.585238663254E-08
      .626454665780E-09  .257000000000E+03  .212300000000E+04  .000000000000E+00
      .312000000000E+01  .000000000000E+00  .372529029846E-08  .419095158577E-08
      .300064000000E+06  .000000000000E+00  .000000000000E+00  .000000000000E+00
E08 2020 09 16 11 10 00  .611988001037E-02 -.542854650121E-11  .000000000000E+00
      .115000000000E+03 -.867500000000E+02  .274975739558E-08  .178484368442E+01
     -.417418777943E-05  .303763896227E-03  .156685709953E-04  .544063837433E+04
      .299400000000E+06  .558793544769E-07  .290796299786E+01 -.689178705215E-07
      .960613555810E+00  .937500000000E+01  .931992338936E-01 -.533272212928E-08
     -.186079179516E-09  .257000000000E+03  .212300000000E+04  .000000000000E+00
      .312000000000E+01  .000000000000E+00 -.582076609135E-08 -.675208866596E-08
      .300085000000E+06  .000000000000E+00  .000000000000E+00  .000000000000E+00
